[
    {
        "Altitude(m)": 702671.4725300681,
        "Argument of Periapsis(deg)": 0.0011390121186627068,
        "Eccentricity": 0.0,
        "Inclination(deg)": 45.0,
        "Latitude(deg)": 12.301928158770247,
        "Longitude(deg)": 62.47707882104065,
        "Mean Anomaly(deg)": 17.51692166474811,
        "RAAN(deg)": 149.9989248058542,
        "Satellite Name": "Constellation 1 661",
        "Satellite Number": 661,
        "Semi-Major Axis(m)": 7083131.272910544,
        "Time(s)": 19
    },
    {
        "Altitude(m)": 702671.7014744144,
        "Argument of Periapsis(deg)": 0.0011989601249081123,
        "Eccentricity": 0.0,
        "Inclination(deg)": 45.0,
        "Latitude(deg)": 12.34410656465156,
        "Longitude(deg)": 62.51787360592026,
        "Mean Anomaly(deg)": 17.57762280499797,
        "RAAN(deg)": 149.9988682166886,
        "Satellite Name": "Constellation 1 661",
        "Satellite Number": 661,
        "Semi-Major Axis(m)": 7083131.272910544,
        "Time(s)": 20
    },
    {
        "Altitude(m)": 702671.9491254127,
        "Argument of Periapsis(deg)": 0.001258908131153518,
        "Eccentricity": 0.0,
        "Inclination(deg)": 45.0,
        "Latitude(deg)": 12.386277479457389,
        "Longitude(deg)": 62.558682795780285,
        "Mean Anomaly(deg)": 17.638323945247883,
        "RAAN(deg)": 149.99881162752305,
        "Satellite Name": "Constellation 1 661",
        "Satellite Number": 661,
        "Semi-Major Axis(m)": 7083131.272910544,
        "Time(s)": 21
    },
    {
        "Altitude(m)": 702672.215463806,
        "Argument of Periapsis(deg)": 0.0013188561373989236,
        "Eccentricity": 0.0,
        "Inclination(deg)": 45.0,
        "Latitude(deg)": 12.42844087427331,
        "Longitude(deg)": 62.59950627516321,
        "Mean Anomaly(deg)": 17.69902508549777,
        "RAAN(deg)": 149.9987550383575,
        "Satellite Name": "Constellation 1 661",
        "Satellite Number": 661,
        "Semi-Major Axis(m)": 7083131.272910544,
        "Time(s)": 22
    },
    {
        "Altitude(m)": 702672.5004702559,
        "Argument of Periapsis(deg)": 0.0013788041436443293,
        "Eccentricity": 0.0,
        "Inclination(deg)": 45.0,
        "Latitude(deg)": 12.470596720157387,
        "Longitude(deg)": 62.64034443293047,
        "Mean Anomaly(deg)": 17.75972622574768,
        "RAAN(deg)": 149.9986984491919,
        "Satellite Name": "Constellation 1 661",
        "Satellite Number": 661,
        "Semi-Major Axis(m)": 7083131.272910544,
        "Time(s)": 23
    },
    {
        "Altitude(m)": 702672.804125345,
        "Argument of Periapsis(deg)": 0.001438752149889735,
        "Eccentricity": 0.0,
        "Inclination(deg)": 45.0,
        "Latitude(deg)": 12.51274498813903,
        "Longitude(deg)": 62.68119715367986,
        "Mean Anomaly(deg)": 17.820427365997567,
        "RAAN(deg)": 149.99864186002634,
        "Satellite Name": "Constellation 1 661",
        "Satellite Number": 661,
        "Semi-Major Axis(m)": 7083131.272910544,
        "Time(s)": 24
    },
    {
        "Altitude(m)": 702673.1264095891,
        "Argument of Periapsis(deg)": 0.0014987001561351404,
        "Eccentricity": 0.0,
        "Inclination(deg)": 45.0,
        "Latitude(deg)": 12.554885649219553,
        "Longitude(deg)": 62.72206449013405,
        "Mean Anomaly(deg)": 17.881128506247478,
        "RAAN(deg)": 149.9985852708608,
        "Satellite Name": "Constellation 1 661",
        "Satellite Number": 661,
        "Semi-Major Axis(m)": 7083131.272910544,
        "Time(s)": 25
    },
    {
        "Altitude(m)": 702673.467303407,
        "Argument of Periapsis(deg)": 0.001558648162380546,
        "Eccentricity": 0.0,
        "Inclination(deg)": 45.0,
        "Latitude(deg)": 12.597018674371895,
        "Longitude(deg)": 62.7629464950434,
        "Mean Anomaly(deg)": 17.941829646497364,
        "RAAN(deg)": 149.9985286816952,
        "Satellite Name": "Constellation 1 661",
        "Satellite Number": 661,
        "Semi-Major Axis(m)": 7083131.272910544,
        "Time(s)": 26
    },
    {
        "Altitude(m)": 702673.8267871556,
        "Argument of Periapsis(deg)": 0.0016185961686259519,
        "Eccentricity": 0.0,
        "Inclination(deg)": 45.0,
        "Latitude(deg)": 12.639144034540555,
        "Longitude(deg)": 62.80384322118617,
        "Mean Anomaly(deg)": 18.002530786747275,
        "RAAN(deg)": 149.99847209252965,
        "Satellite Name": "Constellation 1 661",
        "Satellite Number": 661,
        "Semi-Major Axis(m)": 7083131.272910544,
        "Time(s)": 27
    },
    {
        "Altitude(m)": 702674.2048411054,
        "Argument of Periapsis(deg)": 0.0016785441748713573,
        "Eccentricity": 0.0,
        "Inclination(deg)": 45.0,
        "Latitude(deg)": 12.681261700641475,
        "Longitude(deg)": 62.844754721368545,
        "Mean Anomaly(deg)": 18.06323192699719,
        "RAAN(deg)": 149.99841550336404,
        "Satellite Name": "Constellation 1 661",
        "Satellite Number": 661,
        "Semi-Major Axis(m)": 7083131.272910544,
        "Time(s)": 28
    },
    {
        "Altitude(m)": 702674.6014454502,
        "Argument of Periapsis(deg)": 0.001738492181116763,
        "Eccentricity": 0.0,
        "Inclination(deg)": 45.0,
        "Latitude(deg)": 12.723371643561816,
        "Longitude(deg)": 62.88568104842458,
        "Mean Anomaly(deg)": 18.123933067247076,
        "RAAN(deg)": 149.9983589141985,
        "Satellite Name": "Constellation 1 661",
        "Satellite Number": 661,
        "Semi-Major Axis(m)": 7083131.272910544,
        "Time(s)": 29
    },
    {
        "Altitude(m)": 702675.0165803093,
        "Argument of Periapsis(deg)": 0.0017984401873621684,
        "Eccentricity": 0.0,
        "Inclination(deg)": 45.0,
        "Latitude(deg)": 12.765473834159897,
        "Longitude(deg)": 62.926622087119306,
        "Mean Anomaly(deg)": 18.184634207496988,
        "RAAN(deg)": 149.9983023250329,
        "Satellite Name": "Constellation 1 661",
        "Satellite Number": 661,
        "Semi-Major Axis(m)": 7083131.272910544,
        "Time(s)": 30
    },
    {
        "Altitude(m)": 702675.4502257194,
        "Argument of Periapsis(deg)": 0.0018583881936075745,
        "Eccentricity": 0.0,
        "Inclination(deg)": 45.0,
        "Latitude(deg)": 12.807568243265617,
        "Longitude(deg)": 62.967578226537114,
        "Mean Anomaly(deg)": 18.245335347746874,
        "RAAN(deg)": 149.99824573586736,
        "Satellite Name": "Constellation 1 661",
        "Satellite Number": 661,
        "Semi-Major Axis(m)": 7083131.272910544,
        "Time(s)": 31
    },
    {
        "Altitude(m)": 702675.9023616477,
        "Argument of Periapsis(deg)": 0.0019183361998529795,
        "Eccentricity": 0.0,
        "Inclination(deg)": 45.0,
        "Latitude(deg)": 12.849654841679348,
        "Longitude(deg)": 63.00854935149918,
        "Mean Anomaly(deg)": 18.306036487996785,
        "RAAN(deg)": 149.99818914670178,
        "Satellite Name": "Constellation 1 661",
        "Satellite Number": 661,
        "Semi-Major Axis(m)": 7083131.272910544,
        "Time(s)": 32
    },
    {
        "Altitude(m)": 702676.3729679707,
        "Argument of Periapsis(deg)": 0.0019782842060983856,
        "Eccentricity": 0.0,
        "Inclination(deg)": 45.0,
        "Latitude(deg)": 12.891733600172547,
        "Longitude(deg)": 63.04953551495205,
        "Mean Anomaly(deg)": 18.36673762824667,
        "RAAN(deg)": 149.99813255753622,
        "Satellite Name": "Constellation 1 661",
        "Satellite Number": 661,
        "Semi-Major Axis(m)": 7083131.272910544,
        "Time(s)": 33
    },
    {
        "Altitude(m)": 702676.8620245056,
        "Argument of Periapsis(deg)": 0.0020382322123437906,
        "Eccentricity": 0.0,
        "Inclination(deg)": 45.0,
        "Latitude(deg)": 12.933804489487445,
        "Longitude(deg)": 63.09053676987046,
        "Mean Anomaly(deg)": 18.427438768496582,
        "RAAN(deg)": 149.99807596837064,
        "Satellite Name": "Constellation 1 661",
        "Satellite Number": 661,
        "Semi-Major Axis(m)": 7083131.272910544,
        "Time(s)": 34
    },
    {
        "Altitude(m)": 702677.3695109732,
        "Argument of Periapsis(deg)": 0.002098180218589197,
        "Eccentricity": 0.0,
        "Inclination(deg)": 45.0,
        "Latitude(deg)": 12.975867480336982,
        "Longitude(deg)": 63.13155316925742,
        "Mean Anomaly(deg)": 18.488139908746472,
        "RAAN(deg)": 149.99801937920506,
        "Satellite Name": "Constellation 1 661",
        "Satellite Number": 661,
        "Semi-Major Axis(m)": 7083131.272910544,
        "Time(s)": 35
    },
    {
        "Altitude(m)": 702677.8954070299,
        "Argument of Periapsis(deg)": 0.002158128224834602,
        "Eccentricity": 0.0,
        "Inclination(deg)": 45.0,
        "Latitude(deg)": 13.017922543404651,
        "Longitude(deg)": 63.1725847661443,
        "Mean Anomaly(deg)": 18.548841048996383,
        "RAAN(deg)": 149.9979627900395,
        "Satellite Name": "Constellation 1 661",
        "Satellite Number": 661,
        "Semi-Major Axis(m)": 7083131.272910544,
        "Time(s)": 36
    },
    {
        "Altitude(m)": 702678.439692252,
        "Argument of Periapsis(deg)": 0.002218076231080008,
        "Eccentricity": 0.0,
        "Inclination(deg)": 45.0,
        "Latitude(deg)": 13.059969649344259,
        "Longitude(deg)": 63.213631445493824,
        "Mean Anomaly(deg)": 18.609542189246294,
        "RAAN(deg)": 149.99790620087393,
        "Satellite Name": "Constellation 1 661",
        "Satellite Number": 661,
        "Semi-Major Axis(m)": 7083131.272910544,
        "Time(s)": 37
    }
]